[{"OBJECT_NAME":"TYVAK-0130","OBJECT_ID":"2021-041BF","EPOCH":"2026-03-09T11:37:42.710304","MEAN_MOTION":15.26049141,"ECCENTRICITY":0.0008953,"INCLINATION":52.9967,"RA_OF_ASC_NODE":128.603,"ARG_OF_PERICENTER":215.1647,"MEAN_ANOMALY":144.876,"EPHEMERIS_TYPE":0,"CLASSIFICATION_TYPE":"U","NORAD_CAT_ID":48606,"ELEMENT_SET_NO":999,"REV_AT_EPOCH":26515,"BSTAR":0.0003519806,"MEAN_MOTION_DOT":8.857e-5,"MEAN_MOTION_DDOT":0},{"OBJECT_NAME":"STARLINK-32433","OBJECT_ID":"2024-202H","EPOCH":"2026-03-09T12:13:29.271648","MEAN_MOTION":15.27567455,"ECCENTRICITY":0.00017867,"INCLINATION":43.0024,"RA_OF_ASC_NODE":238.6988,"ARG_OF_PERICENTER":285.7681,"MEAN_ANOMALY":74.2974,"EPHEMERIS_TYPE":0,"CLASSIFICATION_TYPE":"U","NORAD_CAT_ID":61852,"ELEMENT_SET_NO":999,"REV_AT_EPOCH":7531,"BSTAR":1.1060254e-5,"MEAN_MOTION_DOT":4.2e-7,"MEAN_MOTION_DDOT":0}]
