TYVAK-0130              
1 48606U 21041BF  26068.48452211  .00008857  00000+0  35198-3 0  9997
2 48606  52.9967 128.6030 0008953 215.1647 144.8760 15.26049141265157
STARLINK-32433          
1 61852U 24202H   26068.50936657  .00000042  00000+0  11060-4 0  9992
2 61852  43.0024 238.6988 0001786 285.7681  74.2974 15.27567455 75316
